IRIDIUM 7               
1 24793U 97020B   24131.64958862  .00000788  00000+0  26913-3 0  9998
2 24793  86.3969 345.5602 0002247  80.9503 279.1948 14.35194204414140
IRIDIUM 5               
1 24795U 97020D   24132.42379281  .00030331  00000+0  28979-2 0  9999
2 24795  86.3909 267.8105 0124318 132.4830 228.6983 14.87401875425636
IRIDIUM 4               
1 24796U 97020E   24131.81995308  .00000953  00000+0  32083-3 0  9995
2 24796  86.3960 342.6342 0002323  86.9061 273.2402 14.36119288414738
IRIDIUM 914             
1 24836U 97030A   24132.08961068  .00003224  00000+0  10184-2 0  9998
2 24836  86.3952 352.3030 0003930  95.6422 264.5226 14.39984826411341
IRIDIUM 16              
1 24841U 97030F   24132.42869963  .00004108  00000+0  13558-2 0  9993
2 24841  86.4071  14.0326 0001497  18.7645 341.3607 14.37885715409517
IRIDIUM 911             
1 24842U 97030G   24132.36748081  .00004960  00000+0  13711-2 0  9991
2 24842  86.4496  13.2165 0014583   6.1895 353.9485 14.46516291416958
IRIDIUM 17              
1 24870U 97034B   24132.16579388  .00001588  00000+0  52987-3 0  9998
2 24870  86.3991  43.7372 0000820 116.1703 243.9578 14.36961499405834
IRIDIUM 920             
1 24871U 97034C   24132.40878857  .00003958  00000+0  12327-2 0  9995
2 24871  86.4013  23.8062 0010739 338.1723  21.9017 14.40697765408971
